{
  "type": "FeatureCollection",
  "features": [
    {
      "type": "Feature",
      "properties": {
        "norad_id": 39617,
        "name": "ASTRA 5B (EGNOS/PRN 123)",
        "group": "gnss",
        "lat": -0.05089932121737454,
        "lon": -36.33676745632319,
        "alt_km": 35771.513220643836,
        "timestamp": "2025-12-26T13:39:19.216903+00:00",
        "meta_object_name": "ASTRA 5B (EGNOS/PRN 123)",
        "meta_object_id": "2014-011B",
        "meta_epoch": "2025-12-26T02:52:23.929824",
        "meta_mean_motion": 1.00271511,
        "meta_eccentricity": 0.00046935,
        "meta_inclination": 0.0456,
        "meta_ra_of_asc_node": 16.7994,
        "meta_arg_of_pericenter": 264.1751,
        "meta_mean_anomaly": 240.4863,
        "meta_ephemeris_type": 0,
        "meta_classification_type": "U",
        "meta_norad_cat_id": 39617,
        "meta_element_set_no": 999,
        "meta_rev_at_epoch": 4293,
        "meta_bstar": 0,
        "meta_mean_motion_dot": 1.59e-06,
        "meta_mean_motion_ddot": 0,
        "tle_line1": "1 39617U 14011B   25360.11972141  .00000159  00000+0  00000+0 0  9998",
        "tle_line2": "2 39617   0.0456  16.7994 0004693 264.1751 240.4863  1.00271511 42930"
      },
      "geometry": {
        "type": "Point",
        "coordinates": [
          -36.33676745632319,
          -0.05089932121737454
        ]
      }
    },
    {
      "type": "Feature",
      "properties": {
        "norad_id": 39620,
        "name": "COSMOS 2492 (754)",
        "group": "gnss",
        "lat": -53.973597648554154,
        "lon": -79.22474985727014,
        "alt_km": 19100.86108459733,
        "timestamp": "2025-12-26T13:39:19.216914+00:00",
        "meta_object_name": "COSMOS 2492 (754)",
        "meta_object_id": "2014-012A",
        "meta_epoch": "2025-12-25T17:05:27.733056",
        "meta_mean_motion": 2.13103333,
        "meta_eccentricity": 0.00143014,
        "meta_inclination": 65.4007,
        "meta_ra_of_asc_node": 319.831,
        "meta_arg_of_pericenter": 314.035,
        "meta_mean_anomaly": 45.8506,
        "meta_ephemeris_type": 0,
        "meta_classification_type": "U",
        "meta_norad_cat_id": 39620,
        "meta_element_set_no": 999,
        "meta_rev_at_epoch": 9154,
        "meta_bstar": 0,
        "meta_mean_motion_dot": -3.2e-07,
        "meta_mean_motion_ddot": 0,
        "tle_line1": "1 39620U 14012A   25359.71212654 -.00000032  00000+0  00000+0 0  9994",
        "tle_line2": "2 39620  65.4007 319.8310 0014301 314.0350  45.8506  2.13103333 91540"
      },
      "geometry": {
        "type": "Point",
        "coordinates": [
          -79.22474985727014,
          -53.973597648554154
        ]
      }
    },
    {
      "type": "Feature",
      "properties": {
        "norad_id": 39635,
        "name": "IRNSS-1B",
        "group": "gnss",
        "lat": 26.9977079742208,
        "lon": -2.1560385929835233,
        "alt_km": 35747.22111292684,
        "timestamp": "2025-12-26T13:39:19.216926+00:00",
        "meta_object_name": "IRNSS-1B",
        "meta_object_id": "2014-017A",
        "meta_epoch": "2025-12-24T18:29:47.559840",
        "meta_mean_motion": 1.00272104,
        "meta_eccentricity": 0.00185731,
        "meta_inclination": 29.2343,
        "meta_ra_of_asc_node": 243.3872,
        "meta_arg_of_pericenter": 174.7097,
        "meta_mean_anomaly": 8.021,
        "meta_ephemeris_type": 0,
        "meta_classification_type": "U",
        "meta_norad_cat_id": 39635,
        "meta_element_set_no": 999,
        "meta_rev_at_epoch": 4304,
        "meta_bstar": 0,
        "meta_mean_motion_dot": 1.4e-06,
        "meta_mean_motion_ddot": 0,
        "tle_line1": "1 39635U 14017A   25358.77068935  .00000140  00000+0  00000+0 0  9990",
        "tle_line2": "2 39635  29.2343 243.3872 0018573 174.7097   8.0210  1.00272104 43048"
      },
      "geometry": {
        "type": "Point",
        "coordinates": [
          -2.1560385929835233,
          26.9977079742208
        ]
      }
    },
    {
      "type": "Feature",
      "properties": {
        "norad_id": 39727,
        "name": "LUCH 5V (SDCM/PRN 141)",
        "group": "gnss",
        "lat": -2.790371532228878,
        "lon": 35.02152018065013,
        "alt_km": 35791.095673179436,
        "timestamp": "2025-12-26T13:39:19.216938+00:00",
        "meta_object_name": "LUCH 5V (SDCM/PRN 141)",
        "meta_object_id": "2014-023A",
        "meta_epoch": "2025-12-26T03:12:44.481888",
        "meta_mean_motion": 1.00273661,
        "meta_eccentricity": 0.00037801,
        "meta_inclination": 4.7014,
        "meta_ra_of_asc_node": 71.4239,
        "meta_arg_of_pericenter": 214.8852,
        "meta_mean_anomaly": 311.5075,
        "meta_ephemeris_type": 0,
        "meta_classification_type": "U",
        "meta_norad_cat_id": 39727,
        "meta_element_set_no": 999,
        "meta_rev_at_epoch": 4262,
        "meta_bstar": 0,
        "meta_mean_motion_dot": -2.49e-06,
        "meta_mean_motion_ddot": 0,
        "tle_line1": "1 39727U 14023A   25360.13384817 -.00000249  00000+0  00000+0 0  9993",
        "tle_line2": "2 39727   4.7014  71.4239 0003780 214.8852 311.5075  1.00273661 42622"
      },
      "geometry": {
        "type": "Point",
        "coordinates": [
          35.02152018065013,
          -2.790371532228878
        ]
      }
    },
    {
      "type": "Feature",
      "properties": {
        "norad_id": 39741,
        "name": "GPS BIIF-6  (PRN 06)",
        "group": "gnss",
        "lat": 55.89757363227982,
        "lon": 55.367868924214086,
        "alt_km": 20233.72204638788,
        "timestamp": "2025-12-26T13:39:19.216949+00:00",
        "meta_object_name": "GPS BIIF-6  (PRN 06)",
        "meta_object_id": "2014-026A",
        "meta_epoch": "2025-12-25T22:56:21.833664",
        "meta_mean_motion": 2.00560326,
        "meta_eccentricity": 0.00395057,
        "meta_inclination": 56.5784,
        "meta_ra_of_asc_node": 338.2626,
        "meta_arg_of_pericenter": 319.4307,
        "meta_mean_anomaly": 40.2828,
        "meta_ephemeris_type": 0,
        "meta_classification_type": "U",
        "meta_norad_cat_id": 39741,
        "meta_element_set_no": 999,
        "meta_rev_at_epoch": 8506,
        "meta_bstar": 0,
        "meta_mean_motion_dot": -5.7e-07,
        "meta_mean_motion_ddot": 0,
        "tle_line1": "1 39741U 14026A   25359.95580826 -.00000057  00000+0  00000+0 0  9995",
        "tle_line2": "2 39741  56.5784 338.2626 0039505 319.4307  40.2828  2.00560326 85067"
      },
      "geometry": {
        "type": "Point",
        "coordinates": [
          55.367868924214086,
          55.89757363227982
        ]
      }
    },
    {
      "type": "Feature",
      "properties": {
        "norad_id": 40001,
        "name": "COSMOS 2500 (755)",
        "group": "gnss",
        "lat": 13.322723718874848,
        "lon": 133.3064944270683,
        "alt_km": 19116.851446578803,
        "timestamp": "2025-12-26T13:39:19.216960+00:00",
        "meta_object_name": "COSMOS 2500 (755)",
        "meta_object_id": "2014-032A",
        "meta_epoch": "2025-12-24T22:41:43.592352",
        "meta_mean_motion": 2.13106238,
        "meta_eccentricity": 0.0007709,
        "meta_inclination": 65.3365,
        "meta_ra_of_asc_node": 319.6177,
        "meta_arg_of_pericenter": 219.4903,
        "meta_mean_anomaly": 140.4561,
        "meta_ephemeris_type": 0,
        "meta_classification_type": "U",
        "meta_norad_cat_id": 40001,
        "meta_element_set_no": 999,
        "meta_rev_at_epoch": 8974,
        "meta_bstar": 0,
        "meta_mean_motion_dot": -3.2e-07,
        "meta_mean_motion_ddot": 0,
        "tle_line1": "1 40001U 14032A   25358.94564343 -.00000032  00000+0  00000+0 0  9990",
        "tle_line2": "2 40001  65.3365 319.6177 0007709 219.4903 140.4561  2.13106238 89745"
      },
      "geometry": {
        "type": "Point",
        "coordinates": [
          133.3064944270683,
          13.322723718874848
        ]
      }
    },
    {
      "type": "Feature",
      "properties": {
        "norad_id": 40105,
        "name": "GPS BIIF-7  (PRN 09)",
        "group": "gnss",
        "lat": 16.437979143869914,
        "lon": 107.15972949288756,
        "alt_km": 20194.24257883588,
        "timestamp": "2025-12-26T13:39:19.216974+00:00",
        "meta_object_name": "GPS BIIF-7  (PRN 09)",
        "meta_object_id": "2014-045A",
        "meta_epoch": "2025-12-23T13:11:32.096256",
        "meta_mean_motion": 2.00573211,
        "meta_eccentricity": 0.00324114,
        "meta_inclination": 55.2352,
        "meta_ra_of_asc_node": 95.4677,
        "meta_arg_of_pericenter": 120.1575,
        "meta_mean_anomaly": 240.1743,
        "meta_ephemeris_type": 0,
        "meta_classification_type": "U",
        "meta_norad_cat_id": 40105,
        "meta_element_set_no": 999,
        "meta_rev_at_epoch": 8255,
        "meta_bstar": 0,
        "meta_mean_motion_dot": 8e-08,
        "meta_mean_motion_ddot": 0,
        "tle_line1": "1 40105U 14045A   25357.54967704  .00000008  00000+0  00000+0 0  9994",
        "tle_line2": "2 40105  55.2352  95.4677 0032411 120.1575 240.1743  2.00573211 82556"
      },
      "geometry": {
        "type": "Point",
        "coordinates": [
          107.15972949288756,
          16.437979143869914
        ]
      }
    }
  ]
}